OBJECT_NAME,OBJECT_ID,EPOCH,MEAN_MOTION,ECCENTRICITY,INCLINATION,RA_OF_ASC_NODE,ARG_OF_PERICENTER,MEAN_ANOMALY,EPHEMERIS_TYPE,CLASSIFICATION_TYPE,NORAD_CAT_ID,ELEMENT_SET_NO,REV_AT_EPOCH,BSTAR,MEAN_MOTION_DOT,MEAN_MOTION_DDOT
PROBA-1,2001-049B,2026-07-16T03:24:26.050752,15.07618680,.0055684,97.9599,206.6875,26.7516,333.6564,0,U,26958,999,34798,.83964E-4,.1251E-4,0
CUTE-1 (CO-55),2003-031E,2026-07-15T23:30:01.450944,14.24351837,.0010841,98.6744,205.1765,100.6537,259.5863,0,U,27844,999,19577,.75469E-4,.131E-5,0
CUBESAT XI-IV (CO-57),2003-031J,2026-07-15T23:34:14.617632,14.23634777,.0010566,98.6774,204.8688,117.3488,242.8767,0,U,27848,999,19547,.65012E-4,.105E-5,0
APRIZESAT 4,2009-041D,2026-07-16T02:49:13.234656,14.83914381,.0042285,98.1404,273.0135,226.4729,133.2968,0,U,35684,999,91565,.46632E-4,.334E-5,0
APRIZESAT 3,2009-041F,2026-07-15T23:42:52.264224,14.96312357,.0060765,98.2102,351.5983,333.2852,26.5241,0,U,35686,999,92068,.71213E-4,.765E-5,0
PROBA-2,2009-059B,2026-07-16T03:01:36.723072,14.54873843,.0013065,98.2459,20.0791,185.7939,174.3109,0,U,36037,999,88573,.23429E-4,.55E-6,0
APRIZESAT 5,2011-044E,2026-07-16T01:22:08.990400,14.81128340,.0050686,98.2449,130.9171,269.8503,89.6900,0,U,37792,999,80306,.55965E-4,.384E-5,0
APRIZESAT 6,2011-044F,2026-07-15T08:10:34.485888,14.76956881,.00430427,98.2338,107.4128,357.8013,119.3307,0,U,37793,999,80130,.57568561E-4,.355E-5,0
PROBA-V,2013-021A,2026-07-15T22:27:35.519328,14.23603473,.0005231,98.3606,174.1262,58.2568,301.9121,0,U,39159,999,68520,.24298E-4,.14E-6,0
APRIZESAT 7,2013-066A,2026-07-16T03:13:21.190656,14.91620251,.0037265,97.7723,149.9413,114.3183,246.1934,0,U,39416,999,68554,.60072E-4,.553E-5,0
APRIZESAT 8,2013-066K,2026-07-15T20:40:45.856704,14.87697038,.0045546,97.8230,143.9322,189.6765,170.3579,0,U,39425,999,68393,.45114E-4,.361E-5,0
BUGSAT-1 (TITA),2014-033E,2026-07-16T05:09:47.320992,15.15887482,.0028935,98.0437,291.4674,82.5645,277.8872,0,U,40014,999,66023,.20788E-3,.3945E-4,0
SAUDISAT 4,2014-033G,2026-07-16T03:09:23.753088,14.79576020,.0044177,97.7619,342.2713,340.9956,18.9605,0,U,40016,999,65035,.34846E-4,.212E-5,0
APRIZESAT 9,2014-033J,2026-07-16T04:32:53.952576,14.74253278,.0067464,97.9096,329.6847,106.8088,254.0536,0,U,40018,999,64783,.51525E-4,.301E-5,0
APRIZESAT 10,2014-033K,2026-07-15T21:39:03.841056,14.70911386,.0078788,97.9682,323.2262,181.0864,179.0184,0,U,40019,999,64647,.52285E-4,.283E-5,0
TECHDEMOSAT-1 (TDS-1),2014-037H,2026-07-15T23:36:34.939008,15.13686242,.0006976,98.3826,192.0617,156.1441,204.0112,0,U,40076,999,65258,.22692E-3,.4007E-4,0
TECHNOSAT,2017-042E,2026-07-16T00:53:45.616128,15.05114054,.0017351,97.4318,353.6046,0.8155,359.3097,0,U,42829,999,49104,.11643E-3,.1602E-4,0
FLYING LAPTOP,2017-042G,2026-07-16T04:18:56.295072,15.01315973,.0019656,97.4808,351.6221,29.3910,330.8416,0,U,42831,999,49080,.13845E-3,.1731E-4,0
HAWK-A,2018-099H,2026-07-16T02:11:41.329248,15.24971821,.0034796,97.3893,248.9541,180.7785,179.3404,0,U,43765,999,41750,.15791E-3,.393E-4,0
HAWK-B,2018-099AN,2026-07-16T03:32:41.896896,15.23121029,.0031483,97.3944,248.3633,198.6833,161.3250,0,U,43794,999,41744,.13691E-3,.3202E-4,0
HAWK-C,2018-099AT,2026-07-16T04:45:41.385024,15.28499723,.0040418,97.3872,250.1160,180.2835,179.8389,0,U,43799,999,41834,.161E-3,.4496E-4,0
SALSAT,2020-068K,2026-07-15T23:41:54.574080,15.30178734,.0009305,97.8856,201.8148,189.9449,170.1607,0,U,46495,999,31976,.14039E-3,.4018E-4,0
HAWK-2C,2021-006CT,2026-07-16T03:56:48.310656,15.34995811,.0008671,97.2262,240.9001,98.1007,262.1220,0,U,47502,999,30394,.104E-3,.3456E-4,0
HAWK-2A,2021-006CW,2026-07-16T03:59:59.239104,15.35017065,.0008218,97.2304,241.5969,101.3926,258.8242,0,U,47505,999,30394,.1386E-3,.4634E-4,0
HAWK-2B,2021-006CZ,2026-07-16T02:16:40.944576,15.35143831,.000877,97.2175,239.8131,100.1637,260.0596,0,U,47508,999,30393,.12599E-3,.4223E-4,0
HAWK-3B,2021-059BE,2026-07-16T02:51:02.807136,15.71923124,.0004586,97.6632,36.6148,194.7801,165.3328,0,U,48931,999,28239,.21047E-3,.27283E-3,0
HAWK-3C,2021-059BX,2026-07-16T02:50:35.511648,15.71924167,.0004749,97.6746,42.3495,195.4013,164.7105,0,U,48948,999,28239,.23694E-3,.30746E-3,0
HAWK-3A,2021-059CG,2026-07-16T02:50:25.726848,15.71924464,.000474,97.6690,39.5308,197.5833,162.5266,0,U,48957,999,28239,.21549E-3,.27941E-3,0
HAWK-5C,2022-057Y,2026-07-15T22:20:40.497792,15.52341704,.0002731,97.6616,358.4771,343.5481,16.5682,0,U,52754,999,23080,.19006E-3,.11472E-3,0
HAWK-5B,2022-057AA,2026-07-16T04:31:42.409056,15.52343013,.0003372,97.6630,357.1056,327.9501,32.1546,0,U,52756,999,23084,.17032E-3,.1027E-3,0
HAWK-5A,2022-057AB,2026-07-15T23:52:57.073728,15.52341839,.0003261,97.6625,357.7295,334.4332,25.6758,0,U,52757,999,23081,.19279E-3,.1164E-3,0
